property_type,zip,neighborhood,latitude,longitude
K-12 School,98118,SOUTHEAST,47.54570136,-122.26858429999999
K-12 School,98112,SHARED: CENTRAL & EAST,47.62309371,-122.30538870000001
K-12 School,98125,NORTH,47.71011498,-122.29379175
K-12 School,98109,MAGNOLIA / QUEEN ANNE,47.63303191,-122.35245717
Office,98103,LAKE UNION,47.66391557,-122.33172174
Supermarket/Grocery Store,98105,NORTHEAST,47.66270326,-122.29612323
Distribution Center,98118,GREATER DUWAMISH,47.5106034,-122.29027588
K-12 School,98199,MAGNOLIA / QUEEN ANNE,47.65726207,-122.39065097
K-12 School,98115,NORTHEAST,47.68245037,-122.29393540000001
Office,98107,BALLARD,47.66580963,-122.3860321
Office,98144,GREATER DUWAMISH,47.58002948,-122.31181286
K-12 School,98103,NORTHWEST,47.68894837,-122.33616192
K-12 School,98112,EAST,47.63445532,-122.30801629999999
Office,98122,CENTRAL,47.60841187,-122.30954409999998
Senior Care Community,98126,SOUTHWEST,47.55837362,-122.378518
Senior Care Community,98133,NORTHWEST,47.72389349,-122.35629979999999
K-12 School,98146,SOUTHWEST,47.50935392,-122.37822220000001
Medical Office,98122,EAST,47.61249662,-122.3213373
Retail Store,98109,LAKE UNION,47.622375,-122.33805
Office,98109,LAKE UNION,47.62428336,-122.33589247
Other,98109,MAGNOLIA / QUEEN ANNE,47.62124083,-122.35343219999999
Other,98109,MAGNOLIA / QUEEN ANNE,47.62124083,-122.35343219999999
Other,98109,MAGNOLIA / QUEEN ANNE,47.62189039,-122.35027520000001
Office,98109,LAKE UNION,47.62099765,-122.33592466
Other,98109,MAGNOLIA / QUEEN ANNE,47.62393635,-122.35193000000001
Other,98109,MAGNOLIA / QUEEN ANNE,47.62388082,-122.3499699
Other,98109,MAGNOLIA / QUEEN ANNE,47.62388082,-122.3499699
Office,98109,MAGNOLIA / QUEEN ANNE,47.623925,-122.34834170000002
Office,98109,MAGNOLIA / QUEEN ANNE,47.62334946,-122.344706
Office,98119,MAGNOLIA / QUEEN ANNE,47.62038448,-122.35842690000001
K-12 School,98106,DELRIDGE NEIGHBORHOODS,47.56261299,-122.35792830000001
K-12 School,98112,EAST,47.6262348,-122.3081985
K-12 School,98112,EAST,47.62595722,-122.30416399999999
Office,98144,SOUTHEAST,47.58406769,-122.30127069999999
K-12 School,98144,SOUTHEAST,47.57334571,-122.2906221
K-12 School,98108,GREATER DUWAMISH,47.56301254,-122.3112112
K-12 School,98118,SOUTHEAST,47.55446464,-122.2764003
K-12 School,98119,MAGNOLIA / QUEEN ANNE,47.6367344,-122.35894520000001
Other,98115,NORTHEAST,47.67530479999999,-122.31534199999999
Other,98115,NORTHEAST,47.6756688,-122.3161909
K-12 School,98133,NORTHWEST,47.72465187,-122.3539331
K-12 School,98133,NORTHWEST,47.72595704,-122.33759479999999
K-12 School,98103,LAKE UNION,47.65474724,-122.3490987
Hospital (General Medical & Surgical),98107,BALLARD,47.66742706,-122.37961578
K-12 School,98107,SHARED: BALLARD & NORTHWEST,47.67031559,-122.3622592
K-12 School,98144,SOUTHEAST,47.57604857,-122.2928463
College/University,98122,EAST,47.61496242,-122.3217405
College/University,98106,DELRIDGE NEIGHBORHOODS,47.54550494,-122.3500523
Office,98115,NORTHEAST,47.67843749,-122.26417020000001
K-12 School,98122,CENTRAL,47.60502046,-122.30183259999998
K-12 School,98118,SOUTHEAST,47.51466446,-122.25881869999999
K-12 School,98122,CENTRAL,47.61229388,-122.2908219
K-12 School,98118,GREATER DUWAMISH,47.52933502,-122.28844452
Office,98118,GREATER DUWAMISH,47.53830025,-122.28405320000002
Other - Lodging/Residential,98118,GREATER DUWAMISH,47.53830025,-122.28405320000002
College/University,98119,MAGNOLIA / QUEEN ANNE,47.65153666,-122.36154640000001
Residence Hall/Dormitory,98119,MAGNOLIA / QUEEN ANNE,47.65076266,-122.3638034
K-12 School,98125,NORTH,47.70783561,-122.294626
Other,98122,CENTRAL,47.60411727,-122.3153334
K-12 School,98117,NORTHWEST,47.68734351,-122.3598407
Office,98108,GREATER DUWAMISH,47.5353246,-122.3186034
Retail Store,98125,NORTH,47.70752593,-122.3267018
Other/Specialty Hospital,98125,NORTH,47.70624752,-122.3217548
Retail Store,98125,NORTH,47.70798492,-122.32534027
Hospital (General Medical & Surgical),98105,NORTHEAST,47.66356652,-122.2813832
Financial Office,98133,NORTHWEST,47.70952866,-122.33465749999999
K-12 School,98117,BALLARD,47.67678666,-122.37396820000001
Self-Storage Facility,98122,EAST,47.61229181,-122.3170942
College/University,98103,NORTHWEST,47.69879162,-122.3338342
K-12 School,98118,SOUTHEAST,47.54657866,-122.2820193
Other,98106,DELRIDGE NEIGHBORHOODS,47.54806021,-122.36200190000001
Non-Refrigerated Warehouse,98108,GREATER DUWAMISH,47.54941628,-122.31604209999999
K-12 School,98118,SOUTHEAST,47.52383423,-122.26601409999998
K-12 School,98117,BALLARD,47.69689628,-122.37785259999998
Retail Store,98126,DELRIDGE NEIGHBORHOODS,47.52131741,-122.36689740000001
Retail Store,98126,DELRIDGE NEIGHBORHOODS,47.52131741,-122.36689740000001
K-12 School,98106,DELRIDGE NEIGHBORHOODS,47.52967421,-122.36665559999999
K-12 School,98126,DELRIDGE NEIGHBORHOODS,47.51791397,-122.37067739999999
K-12 School,98144,CENTRAL,47.59792434,-122.30394720000001
Other,98117,BALLARD,47.67771413,-122.39623370000001
K-12 School,98118,SOUTHEAST,47.54197311,-122.27677917
Self-Storage Facility,98126,SOUTHWEST,47.54506084,-122.3773622
K-12 School,98103,LAKE UNION,47.6572102,-122.3375797
Museum,98109,LAKE UNION,47.62759406,-122.3366092
Non-Refrigerated Warehouse,98109,MAGNOLIA / QUEEN ANNE,47.62651741,-122.340841
K-12 School,98117,BALLARD,47.68367156,-122.3729249
Office,98103,NORTHWEST,47.69975953,-122.340249
K-12 School,98136,SOUTHWEST,47.54026729,-122.3884963
K-12 School,98115,NORTH,47.69820046,-122.32108500000001
K-12 School,98108,GREATER DUWAMISH,47.53836703,-122.2964274
Office,98108,GREATER DUWAMISH,47.52440204,-122.3115544
Parking,98125,NORTH,47.7024765,-122.32480621
Mixed Use Property,98119,MAGNOLIA / QUEEN ANNE,47.62392426,-122.35764313
Hospital (General Medical & Surgical),98122,CENTRAL,47.60710663,-122.3107827
K-12 School,98106,DELRIDGE NEIGHBORHOODS,47.52560204,-122.3487068
Non-Refrigerated Warehouse,98103,LAKE UNION,47.65094364,-122.34223770000001
K-12 School,98116,SOUTHWEST,47.57662845,-122.3846578
K-12 School,98105,NORTHEAST,47.66549171,-122.31400670000001
Office,98125,NORTH,47.71892746,-122.29475890000002
Worship Facility,98105,NORTHEAST,47.66176886,-122.31120370000001
Worship Facility,98105,NORTHEAST,47.66262897,-122.31147539999999
K-12 School,98115,NORTHEAST,47.67746117,-122.3130281
K-12 School,98115,NORTHEAST,47.67115081,-122.29181820000001
K-12 School,98119,MAGNOLIA / QUEEN ANNE,47.64090041,-122.3656176
K-12 School,98116,SOUTHWEST,47.5724098,-122.3916721
K-12 School,98144,CENTRAL,47.59101433,-122.2981281
K-12 School,98108,GREATER DUWAMISH,47.55156934,-122.31380359999999
Other,98119,MAGNOLIA / QUEEN ANNE,47.63640533,-122.37916940000001
Medical Office,98119,MAGNOLIA / QUEEN ANNE,47.61994816,-122.36066409999998
Retail Store,98105,NORTHEAST,47.6605111,-122.3128304
Office,98105,NORTHEAST,47.66073759,-122.31466940000001
Data Center,98105,NORTHEAST,47.66007677,-122.31539972
Office,98105,NORTHEAST,47.66095645,-122.3162654
Office,98105,NORTHEAST,47.66044059,-122.31694350000001
Office,98105,NORTHEAST,47.66053047,-122.3174071
Supermarket/Grocery Store,98177,NORTHWEST,47.70184827,-122.36437781
Non-Refrigerated Warehouse,98108,GREATER DUWAMISH,47.54032619,-122.33015747
Retail Store,98144,SOUTHEAST,47.57965631,-122.29880174
Mixed Use Property,98108,GREATER DUWAMISH,47.52726155,-122.29392927
Non-Refrigerated Warehouse,98133,NORTHWEST,47.72957286,-122.34642876
Parking,98109,LAKE UNION,47.62320708,-122.32984117
Office,98109,LAKE UNION,47.62347121,-122.32929694
Non-Refrigerated Warehouse,98107,BALLARD,47.65748867,-122.36767478
Non-Refrigerated Warehouse,98107,BALLARD,47.66611816,-122.38549485
Mixed Use Property,98109,LAKE UNION,47.61932082,-122.3481439
Mixed Use Property,98109,LAKE UNION,47.61892137,-122.34857379999998
Office,98109,LAKE UNION,47.6214758,-122.34305020000001
Office,98119,MAGNOLIA / QUEEN ANNE,47.62168398,-122.36124209999998
Non-Refrigerated Warehouse,98108,GREATER DUWAMISH,47.56077194,-122.32500458
Distribution Center,98108,GREATER DUWAMISH,47.54865557,-122.3253303
Non-Refrigerated Warehouse,98108,GREATER DUWAMISH,47.5468909,-122.32399620000001
Office,98102,LAKE UNION,47.633493,-122.3263524
Distribution Center,98108,GREATER DUWAMISH,47.53766891,-122.32414080000001
Office,98109,LAKE UNION,47.62973404,-122.32804871
Office,98109,MAGNOLIA / QUEEN ANNE,47.62563138,-122.3428953
Office,98109,MAGNOLIA / QUEEN ANNE,47.62912762,-122.3419415
Office,98103,LAKE UNION,47.6477973,-122.3392645
Office,98125,NORTH,47.7007902,-122.3272232
Office,98115,NORTH,47.70006313,-122.326753
Office,98115,NORTH,47.69917313,-122.32688710000001
Office,98115,NORTH,47.70057856,-122.3249321
Office,98106,DELRIDGE NEIGHBORHOODS,47.56710229,-122.36416399999999
Office,98109,LAKE UNION,47.62278141,-122.33206969999999
Office,98109,LAKE UNION,47.61898067,-122.33644009999999
Retail Store,98107,BALLARD,47.66047823,-122.36763290000002
Office,98109,LAKE UNION,47.62410578,-122.33752620000001
Other,98109,LAKE UNION,47.62346456,-122.3375308
Laboratory,98109,LAKE UNION,47.62262099,-122.3375121
Office,98109,LAKE UNION,47.62262623,-122.338058
Office,98109,LAKE UNION,47.62385941,-122.33546448
Non-Refrigerated Warehouse,98109,LAKE UNION,47.62531851,-122.3334149
Office,98109,LAKE UNION,47.62726846,-122.33157620000001
Office,98109,LAKE UNION,47.62622137,-122.33143940000001
Other,98109,LAKE UNION,47.6286355,-122.3306365
Mixed Use Property,98109,LAKE UNION,47.62137417,-122.3388409
Office,98109,LAKE UNION,47.62145233,-122.33753204
Office,98109,LAKE UNION,47.62145615,-122.33805847
Mixed Use Property,98109,LAKE UNION,47.62026229,-122.33680349999999
Laboratory,98109,LAKE UNION,47.62452073,-122.33990438
Mixed Use Property,98109,LAKE UNION,47.623959,-122.3405267
Office,98119,MAGNOLIA / QUEEN ANNE,47.62122551,-122.359728
Office,98119,MAGNOLIA / QUEEN ANNE,47.62302024,-122.35841040000001
Office,98119,MAGNOLIA / QUEEN ANNE,47.622376,-122.35840400000001
Office,98109,MAGNOLIA / QUEEN ANNE,47.62002316,-122.3571354
Office,98119,MAGNOLIA / QUEEN ANNE,47.62011334,-122.3576936
Medical Office,98105,NORTHEAST,47.65821313,-122.3183146
Medical Office,98105,NORTHEAST,47.65884177,-122.3182756
Self-Storage Facility,98107,BALLARD,47.66813102,-122.3941507
Non-Refrigerated Warehouse,98126,SOUTHWEST,47.56885038,-122.37123090000001
Hospital (General Medical & Surgical),98109,LAKE UNION,47.62652206,-122.32956696
Office,98144,GREATER DUWAMISH,47.57089656,-122.2974118
Retail Store,98125,NORTH,47.7240537,-122.29205290000002
Other - Services,98106,DELRIDGE NEIGHBORHOODS,47.56561534,-122.35402830000001
Parking,98103,LAKE UNION,47.64929601,-122.350499
Office,98109,MAGNOLIA / QUEEN ANNE,47.63548436,-122.3409248
Retail Store,98133,NORTHWEST,47.72050908,-122.34739280000001
Non-Refrigerated Warehouse,98133,NORTHWEST,47.72385371,-122.3407784
Strip Mall,98133,NORTHWEST,47.72548938,-122.3469881
Wholesale Club/Supercenter,98133,NORTHWEST,47.72842333,-122.3444389
Retail Store,98133,NORTHWEST,47.72545915,-122.34255290000002
Supermarket/Grocery Store,98133,NORTHWEST,47.72465497,-122.34491274
Office,98103,LAKE UNION,47.65060893,-122.3530578
Office,98103,LAKE UNION,47.64970141,-122.3517949
Office,98103,LAKE UNION,47.6487041,-122.3505842
Office,98103,LAKE UNION,47.6481342,-122.3484595
Office,98103,LAKE UNION,47.64884638,-122.348972
Office,98108,GREATER DUWAMISH,47.55172357,-122.32697144
Non-Refrigerated Warehouse,98108,GREATER DUWAMISH,47.54988981,-122.3286358
Other,98108,GREATER DUWAMISH,47.55030549,-122.3260997
Office,98107,BALLARD,47.66897964,-122.38531494
Non-Refrigerated Warehouse,98107,BALLARD,47.66746426,-122.38565359999998
Parking,98107,BALLARD,47.66256332,-122.37516785
Self-Storage Facility,98119,MAGNOLIA / QUEEN ANNE,47.64716297,-122.37579140000001
Non-Refrigerated Warehouse,98119,MAGNOLIA / QUEEN ANNE,47.65563392,-122.3747028
Self-Storage Facility,98119,MAGNOLIA / QUEEN ANNE,47.63631236,-122.37547020000001
Retail Store,98105,NORTHEAST,47.66172585,-122.31796070000001
Non-Refrigerated Warehouse,98108,GREATER DUWAMISH,47.54728272,-122.325775
Distribution Center,98108,GREATER DUWAMISH,47.54218643,-122.32903600000002
Distribution Center,98108,GREATER DUWAMISH,47.54218643,-122.32903600000002
Non-Refrigerated Warehouse,98108,GREATER DUWAMISH,47.54851596,-122.32767709999999
Non-Refrigerated Warehouse,98108,GREATER DUWAMISH,47.54851596,-122.32767709999999
Office,98108,GREATER DUWAMISH,47.54966924,-122.3276807
Office,98109,MAGNOLIA / QUEEN ANNE,47.62483876,-122.34852620000001
Non-Refrigerated Warehouse,98133,NORTHWEST,47.71285067,-122.3442059
Mixed Use Property,98122,EAST,47.6156585,-122.31744950000001
Supermarket/Grocery Store,98103,NORTHWEST,47.69270472,-122.35506229999999
Office,98109,LAKE UNION,47.6212428,-122.3297865
Non-Refrigerated Warehouse,98109,LAKE UNION,47.62145274,-122.33112849999999
Office,98109,LAKE UNION,47.61985503,-122.33048111
Retail Store,98109,LAKE UNION,47.62035862,-122.3297037
Office,98144,CENTRAL,47.59283131,-122.30874909999999
Office,98144,GREATER DUWAMISH,47.59364401,-122.3109277
Office,98105,NORTHEAST,47.66514721,-122.30180940000001
Other,98122,CENTRAL,47.61448142,-122.3098028
Non-Refrigerated Warehouse,98108,GREATER DUWAMISH,47.56415346,-122.3275518
Mixed Use Property,98144,GREATER DUWAMISH,47.59282532,-122.3168305
Office,98102,LAKE UNION,47.64039142,-122.326242
Distribution Center,98108,GREATER DUWAMISH,47.53692799,-122.3326807
Mixed Use Property,98109,LAKE UNION,47.62386402,-122.33080790000001
Office,98109,LAKE UNION,47.62492806,-122.32978119999999
Retail Store,98125,NORTH,47.70592963,-122.3257763
Office,98133,NORTHWEST,47.70744968,-122.3317136
Strip Mall,98125,SHARED: NORTH & NORTHWEST,47.70940170000001,-122.32033190000001
Office,98133,NORTHWEST,47.70732866,-122.33277279999999
Distribution Center,98106,DELRIDGE NEIGHBORHOODS,47.53914935,-122.341353
Non-Refrigerated Warehouse,98106,DELRIDGE NEIGHBORHOODS,47.53627727,-122.33751310000001
Office,98109,MAGNOLIA / QUEEN ANNE,47.63108155,-122.34191090000002
Parking,98133,NORTHWEST,47.7088653,-122.3346333
Medical Office,98133,NORTHWEST,47.71269972,-122.33763429999999
Non-Refrigerated Warehouse,98103,NORTHWEST,47.69818968,-122.34289799999999
Non-Refrigerated Warehouse,98108,GREATER DUWAMISH,47.52696432,-122.3293949
Medical Office,98133,NORTHWEST,47.70458235,-122.3325262
Retail Store,98125,NORTH,47.70855501,-122.32376419
Mixed Use Property,98102,LAKE UNION,47.634439799999996,-122.32468229999999
Office,98109,LAKE UNION,47.62464437,-122.33126979999999
Office,98119,MAGNOLIA / QUEEN ANNE,47.62516702,-122.36717659999998
Refrigerated Warehouse,98108,GREATER DUWAMISH,47.56156057,-122.3275348
Mixed Use Property,98103,LAKE UNION,47.66088623,-122.3356731
Mixed Use Property,98102,LAKE UNION,47.63453293,-122.32646179
Other,98102,LAKE UNION,47.63103515,-122.32752279999998
Office,98109,LAKE UNION,47.62998519,-122.33963729999999
Office,98109,LAKE UNION,47.6343814,-122.3396625
Non-Refrigerated Warehouse,98108,GREATER DUWAMISH,47.55487662,-122.3276403
Supermarket/Grocery Store,98118,SOUTHEAST,47.52100473,-122.26813940000001
Distribution Center,98106,SHARED: GREATER DUWAMISH & DELRIDGE NEIGHBORHOODS,47.56679281,-122.3523106
Office,98105,NORTHEAST,47.6615192,-122.31623789999999
Medical Office,98109,LAKE UNION,47.62395105,-122.33391200000001
Office,98106,DELRIDGE NEIGHBORHOODS,47.5679286,-122.3641365
Retail Store,98108,GREATER DUWAMISH,47.5666089,-122.3234388
Medical Office,98122,CENTRAL,47.60648346,-122.31105804
Retail Store,98106,DELRIDGE NEIGHBORHOODS,47.53641069,-122.36381019999999
Office,98109,MAGNOLIA / QUEEN ANNE,47.63380792,-122.34079640000002
Other - Recreation,98126,DELRIDGE NEIGHBORHOODS,47.56800769,-122.3676399
Strip Mall,98118,SOUTHEAST,47.56922192,-122.289826
Lifestyle Center,98109,MAGNOLIA / QUEEN ANNE,47.62508085,-122.35519120000001
Office,98119,MAGNOLIA / QUEEN ANNE,47.62496806,-122.359705
Office,98119,MAGNOLIA / QUEEN ANNE,47.65676796,-122.3704009
Retail Store,98119,MAGNOLIA / QUEEN ANNE,47.63720081,-122.37696329999999
Retail Store,98119,MAGNOLIA / QUEEN ANNE,47.632965000000006,-122.376907
Office,98119,MAGNOLIA / QUEEN ANNE,47.63167638,-122.3756112
Office,98119,MAGNOLIA / QUEEN ANNE,47.62299616,-122.36449040000001
Office,98119,MAGNOLIA / QUEEN ANNE,47.62243869,-122.3637884
Office,98119,MAGNOLIA / QUEEN ANNE,47.62183942,-122.36301540000001
Office,98119,MAGNOLIA / QUEEN ANNE,47.62080128,-122.36172109999998
Office,98119,MAGNOLIA / QUEEN ANNE,47.61897016,-122.3594294
Retail Store,98117,NORTHWEST,47.69195845,-122.3587219
Office,98107,BALLARD,47.66328657,-122.3755312
Non-Refrigerated Warehouse,98199,MAGNOLIA / QUEEN ANNE,47.65924951,-122.38431969999999
Other,98105,NORTHEAST,47.65525588,-122.32136979999999
Office,98103,LAKE UNION,47.64900288,-122.3480372
Office,98103,LAKE UNION,47.64929238,-122.3519295
Office,98109,MAGNOLIA / QUEEN ANNE,47.62853241,-122.34191132
Mixed Use Property,98109,LAKE UNION,47.62881703,-122.3288272
Laboratory,98102,LAKE UNION,47.63084183,-122.3268537
Office,98119,MAGNOLIA / QUEEN ANNE,47.62270587,-122.35896059999999
Office,98109,MAGNOLIA / QUEEN ANNE,47.61946053,-122.3563784
Mixed Use Property,98122,EAST,47.61500045,-122.31983819999999
College/University,98122,CENTRAL,47.60963749,-122.3150317
Other,98108,GREATER DUWAMISH,47.56299869,-122.3255706
Office,98108,GREATER DUWAMISH,47.55267715,-122.32740784
Non-Refrigerated Warehouse,98108,GREATER DUWAMISH,47.54849916,-122.32433049999999
Retail Store,98108,GREATER DUWAMISH,47.54698628,-122.32880120000002
Refrigerated Warehouse,98108,GREATER DUWAMISH,47.54329841,-122.3308777
Non-Refrigerated Warehouse,98108,GREATER DUWAMISH,47.53605811,-122.33228999999999
Distribution Center,98108,GREATER DUWAMISH,47.52593209,-122.3308402
Retail Store,98126,DELRIDGE NEIGHBORHOODS,47.52224416,-122.3684832
Parking,98105,NORTHEAST,47.66482021,-122.29765115
Supermarket/Grocery Store,98144,GREATER DUWAMISH,47.57902013,-122.29982450000001
Office,98106,SHARED: GREATER DUWAMISH & DELRIDGE NEIGHBORHOODS,47.54106841,-122.33768290000002
Parking,98125,SHARED: NORTH & NORTHWEST,47.70911192,-122.3246608
Office,98119,MAGNOLIA / QUEEN ANNE,47.62566459,-122.3680201
Non-Refrigerated Warehouse,98106,SOUTHWEST,47.57260151,-122.35779879999998
Office,98109,MAGNOLIA / QUEEN ANNE,47.63266558,-122.34168580000001
Mixed Use Property,98105,NORTHEAST,47.65836686,-122.31287375
Retail Store,98105,NORTHEAST,47.66375728,-122.3002168
K-12 School,98122,CENTRAL,47.6016549,-122.31538028
Non-Refrigerated Warehouse,98118,GREATER DUWAMISH,47.51277739,-122.28386411
Non-Refrigerated Warehouse,98118,GREATER DUWAMISH,47.51184247,-122.28179733
Hospital (General Medical & Surgical),98122,EAST,47.608951,-122.322402
Office,98119,MAGNOLIA / QUEEN ANNE,47.61906313,-122.35864609999999
Mixed Use Property,98122,EAST,47.60453796,-122.32032776
Medical Office,98122,EAST,47.60778771,-122.3201541
Office,98115,NORTH,47.69943689,-122.32378729999999
Non-Refrigerated Warehouse,98107,SHARED: BALLARD & LAKE UNION,47.65803253,-122.364501
Medical Office,98122,EAST,47.61142131,-122.3213375
Other - Entertainment/Public Assembly,98109,MAGNOLIA / QUEEN ANNE,47.62149019,-122.3482175
Non-Refrigerated Warehouse,98122,EAST,47.61819351,-122.3173027
Non-Refrigerated Warehouse,98106,DELRIDGE NEIGHBORHOODS,47.53920898,-122.34281770000001
Retail Store,98133,NORTHWEST,47.71410243,-122.3429112
K-12 School,98122,CENTRAL,47.6022912,-122.2917857
College/University,98144,CENTRAL,47.59968538,-122.30370149999999
Non-Refrigerated Warehouse,98106,SOUTHWEST,47.57322201,-122.36008259999998
Medical Office,98122,CENTRAL,47.60700607,-122.30950928
Retail Store,98108,GREATER DUWAMISH,47.54847297,-122.32271029999998
Medical Office,98122,EAST,47.605636600000004,-122.32147979999999
Non-Refrigerated Warehouse,98125,NORTH,47.70847287,-122.30187439999999
K-12 School,98116,SOUTHWEST,47.58007989,-122.3873108
Supermarket/Grocery Store,98122,EAST,47.61378327,-122.32121310000001
Office,98105,NORTHEAST,47.662095799999996,-122.31202081
Mixed Use Property,98103,LAKE UNION,47.64879342,-122.33322785
Worship Facility,98115,NORTHEAST,47.67751761,-122.28984675
K-12 School,98115,NORTHEAST,47.69064642,-122.29834714
Mixed Use Property,98108,GREATER DUWAMISH,47.54412779,-122.30873835
Non-Refrigerated Warehouse,98108,GREATER DUWAMISH,47.54153185,-122.32884313
Distribution Center,98108,GREATER DUWAMISH,47.54125253,-122.32786627
Manufacturing/Industrial Plant,98108,GREATER DUWAMISH,47.54261556,-122.30645766
Office,98122,CENTRAL,47.60196478,-122.31456094
Worship Facility,98103,NORTHWEST,47.68594811,-122.35432084
K-12 School,98116,SOUTHWEST,47.57769088,-122.40684428
Distribution Center,98118,GREATER DUWAMISH,47.51089546,-122.28074341
Non-Refrigerated Warehouse,98118,GREATER DUWAMISH,47.51442062,-122.27934357
Non-Refrigerated Warehouse,98118,GREATER DUWAMISH,47.510306799999995,-122.28119226
Non-Refrigerated Warehouse,98118,GREATER DUWAMISH,47.51276131,-122.28071926
Non-Refrigerated Warehouse,98118,GREATER DUWAMISH,47.51081215,-122.28276297
Other,98115,NORTHEAST,47.68939742,-122.26969106
Worship Facility,98117,BALLARD,47.68156331,-122.37493866
Office,98107,BALLARD,47.66611816,-122.38549485
Office,98107,BALLARD,47.67522457,-122.40842537
Office,98107,BALLARD,47.67447195,-122.40777514
Restaurant,98107,BALLARD,47.67409077,-122.40770067
K-12 School,98122,CENTRAL,47.60818545,-122.30052066
Retail Store,98144,DOWNTOWN,47.59656273,-122.31395492
Other,98115,NORTH,47.68449217,-122.31903789
K-12 School,98103,NORTHWEST,47.68667488,-122.34216282
Social/Meeting Hall,98103,NORTHWEST,47.67779084,-122.3527645
Worship Facility,98116,SOUTHWEST,47.57367495,-122.41166161
Retail Store,98133,NORTHWEST,47.72763881,-122.34540651
Other - Education,98133,NORTHWEST,47.72778979,-122.34627787
Other,98133,NORTHWEST,47.72969445,-122.34543246
Worship Facility,98116,SOUTHWEST,47.56646894,-122.38738808
Retail Store,98105,NORTHEAST,47.66460037,-122.29972076
Retail Store,98105,NORTHEAST,47.66384364,-122.29717129
Retail Store,98105,NORTHEAST,47.66384364,-122.29717129
K-12 School,98109,MAGNOLIA / QUEEN ANNE,47.63189062,-122.35355257
Worship Facility,98103,SHARED: LAKE UNION & NORTHWEST,47.66492005,-122.35223915
Residence Hall/Dormitory,98105,NORTHEAST,47.66278139,-122.30509963
Office,98105,NORTHEAST,47.664750299999994,-122.30155368
Retail Store,98105,NORTHEAST,47.66375728,-122.3002168
Retail Store,98105,NORTHEAST,47.66375728,-122.3002168
Retail Store,98105,NORTHEAST,47.66375728,-122.3002168
Retail Store,98105,NORTHEAST,47.66375728,-122.3002168
Worship Facility,98103,SHARED: LAKE UNION & NORTHWEST,47.67572194,-122.3284741
Worship Facility,98103,SHARED: LAKE UNION & NORTHWEST,47.67496795,-122.33300390000001
Mixed Use Property,98144,SOUTHEAST,47.57256697,-122.2926683
Residence Hall/Dormitory,98105,NORTHEAST,47.66156867,-122.30429140000001
Worship Facility,98105,NORTHEAST,47.66553115,-122.27452520000001
Worship Facility,98118,SOUTHEAST,47.54382945,-122.2666646
Mixed Use Property,98107,BALLARD,47.66848688,-122.3891043
Mixed Use Property,98107,BALLARD,47.66840403,-122.3879978
K-12 School,98115,NORTHEAST,47.67477763,-122.26229369999999
Retail Store,98105,NORTHEAST,47.66032028,-122.31348419
Other - Entertainment/Public Assembly,98105,NORTHEAST,47.66091704,-122.3139571
Worship Facility,98105,NORTHEAST,47.65896482,-122.3123803
Residence Hall/Dormitory,98105,NORTHEAST,47.65710843,-122.3140463
Other - Education,98105,NORTHEAST,47.65027202,-122.31300859999999
Other - Education,98105,NORTHEAST,47.65027202,-122.31300859999999
Worship Facility,98115,NORTHEAST,47.68762613,-122.2988487
K-12 School,98115,NORTHEAST,47.68698452,-122.3001519
Office,98103,LAKE UNION,47.647424799999996,-122.33207390000001
K-12 School,98144,GREATER DUWAMISH,47.57435237,-122.30279499999999
Mixed Use Property,98107,BALLARD,47.65759684,-122.3664114
K-12 School,98116,SOUTHWEST,47.56485289,-122.38521848
K-12 School,98116,SOUTHWEST,47.56502533,-122.38456726
Worship Facility,98116,SOUTHWEST,47.56334562,-122.38494153
Mixed Use Property,98116,SOUTHWEST,47.56221008,-122.38638306
Mixed Use Property,98116,SOUTHWEST,47.56147766,-122.38638306
Other - Recreation,98116,SOUTHWEST,47.56279704,-122.38212068
Supermarket/Grocery Store,98126,SOUTHWEST,47.56234935,-122.38090294
Fitness Center/Health Club/Gym,98126,SOUTHWEST,47.56229286,-122.37856054
Office,98126,SOUTHWEST,47.5619656,-122.37860657
Mixed Use Property,98125,NORTH,47.72145421,-122.2960621
Other,98125,NORTH,47.72032547,-122.29509159999999
Other,98125,NORTH,47.72586701,-122.2871111
Non-Refrigerated Warehouse,98108,GREATER DUWAMISH,47.55218148,-122.3232298
Medical Office,98122,CENTRAL,47.6012949,-122.3045281
Other - Mall,98116,SOUTHWEST,47.56033119,-122.3871845
K-12 School,98144,GREATER DUWAMISH,47.58508977,-122.3153598
Distribution Center,98144,GREATER DUWAMISH,47.58493545,-122.30645590000002
Refrigerated Warehouse,98144,GREATER DUWAMISH,47.58520699,-122.3059527
Non-Refrigerated Warehouse,98144,GREATER DUWAMISH,47.58473587,-122.30489349
Office,98144,GREATER DUWAMISH,47.58501969,-122.30501650000001
Distribution Center,98144,GREATER DUWAMISH,47.58594125,-122.30452749999999
Office,98144,SOUTHEAST,47.58600295,-122.30352759999998
Office,98144,SOUTHEAST,47.58585718,-122.2996162
Other - Recreation,98144,SOUTHEAST,47.58534028,-122.2976397
Other - Services,98144,SOUTHEAST,47.57012605,-122.292111
Supermarket/Grocery Store,98109,MAGNOLIA / QUEEN ANNE,47.63770856,-122.3560834
Other - Recreation,98119,MAGNOLIA / QUEEN ANNE,47.63636811,-122.35791709999998
Non-Refrigerated Warehouse,98106,DELRIDGE NEIGHBORHOODS,47.56439838,-122.3535263
K-12 School,98112,EAST,47.63179299,-122.30782859999998
Worship Facility,98199,MAGNOLIA / QUEEN ANNE,47.63913312,-122.40335990000001
Automobile Dealership,98125,NORTH,47.72599646,-122.2930226
Self-Storage Facility,98125,NORTH,47.72310925,-122.29422759999999
K-12 School,98119,MAGNOLIA / QUEEN ANNE,47.63107491,-122.3584347
Worship Facility,98119,MAGNOLIA / QUEEN ANNE,47.63164576,-122.3584314
Distribution Center,98108,GREATER DUWAMISH,47.5436441,-122.3078483
K-12 School,98102,LAKE UNION,47.64246976,-122.3239614
Office,98102,LAKE UNION,47.64256231,-122.3262091
Office,98102,LAKE UNION,47.64430073,-122.3262467
Office,98102,LAKE UNION,47.64635866,-122.32573470000001
Residence Hall/Dormitory,98103,LAKE UNION,47.65018106,-122.34426380000001
Office,98103,LAKE UNION,47.64867065,-122.3424503
Office,98103,LAKE UNION,47.64888467,-122.34648390000001
Senior Care Community,98117,BALLARD,47.69846975,-122.36713059999998
Worship Facility,98115,NORTHEAST,47.67465943,-122.29282579999999
K-12 School,98115,NORTHEAST,47.67465943,-122.29282579999999
Office,98103,NORTHWEST,47.68599886,-122.35671310000001
K-12 School,98117,NORTHWEST,47.68635845,-122.3561893
Worship Facility,98178,SOUTHEAST,47.51063848,-122.26265079999999
K-12 School,98109,MAGNOLIA / QUEEN ANNE,47.637673,-122.3485889
Senior Care Community,98118,SOUTHEAST,47.55391552,-122.27879180000001
Non-Refrigerated Warehouse,98108,GREATER DUWAMISH,47.5536881,-122.32486680000001
Office,98108,GREATER DUWAMISH,47.55315894,-122.32608540000001
Office,98108,GREATER DUWAMISH,47.55196738,-122.3251545
Other - Recreation,98108,GREATER DUWAMISH,47.55169324,-122.32455490000001
Non-Refrigerated Warehouse,98108,GREATER DUWAMISH,47.55047761,-122.32378929999999
Office,98108,GREATER DUWAMISH,47.55148102,-122.32636129999999
Office,98108,GREATER DUWAMISH,47.55129662,-122.3257379
Non-Refrigerated Warehouse,98108,GREATER DUWAMISH,47.55102755,-122.325166
Office,98103,LAKE UNION,47.65566368,-122.34682409999999
Mixed Use Property,98102,NORTHEAST,47.65197566,-122.3216429
Office,98103,LAKE UNION,47.65172127,-122.3509877
Office,98103,LAKE UNION,47.64916511,-122.3453828
Non-Refrigerated Warehouse,98103,LAKE UNION,47.64977229,-122.3492219
Mixed Use Property,98103,LAKE UNION,47.65018452,-122.34934820000001
Office,98103,LAKE UNION,47.65105661,-122.34957709999999
Retail Store,98103,LAKE UNION,47.65115517,-122.3503019
Retail Store,98103,LAKE UNION,47.65030562,-122.3502699
Mixed Use Property,98103,LAKE UNION,47.65045108,-122.352043
Distribution Center,98103,LAKE UNION,47.65202472,-122.3560533
Office,98103,LAKE UNION,47.65184745,-122.3552423
Other,98103,LAKE UNION,47.65136879999999,-122.35560559999999
Office,98107,LAKE UNION,47.65288467,-122.35843490000002
Worship Facility,98119,MAGNOLIA / QUEEN ANNE,47.649083700000006,-122.3604006
Office,98109,MAGNOLIA / QUEEN ANNE,47.648041,-122.3552148
Office,98109,MAGNOLIA / QUEEN ANNE,47.64975976,-122.3568838
Office,98109,MAGNOLIA / QUEEN ANNE,47.649758399999996,-122.3562524
Office,98109,MAGNOLIA / QUEEN ANNE,47.65015243,-122.3572523
Other,98103,LAKE UNION,47.64971767,-122.3528932
Office,98109,MAGNOLIA / QUEEN ANNE,47.64934199,-122.35587720000001
Office,98109,MAGNOLIA / QUEEN ANNE,47.64934199,-122.35587720000001
Office,98109,MAGNOLIA / QUEEN ANNE,47.64863978,-122.35428950000001
Distribution Center,98106,DELRIDGE NEIGHBORHOODS,47.55075455,-122.34667969
Other,98133,NORTHWEST,47.72468861,-122.34120259999999
Other - Recreation,98133,NORTHWEST,47.72285088,-122.34062730000001
Office,98133,NORTHWEST,47.71997749,-122.3428237
Residential Care Facility,98133,NORTHWEST,47.72290244,-122.34249640000002
Other - Services,98133,NORTHWEST,47.72133496,-122.3410135
Non-Refrigerated Warehouse,98133,NORTHWEST,47.72161322,-122.34328640000001
Non-Refrigerated Warehouse,98133,NORTHWEST,47.72048923,-122.34244650000001
Office,98133,NORTHWEST,47.73381054,-122.347275
Other - Recreation,98133,NORTHWEST,47.72609705,-122.34459540000002
Retail Store,98133,NORTHWEST,47.72375488,-122.34352112
Retail Store,98133,NORTHWEST,47.72569066,-122.34326609999998
Worship Facility,98105,NORTHEAST,47.67008987,-122.3208898
K-12 School,98109,MAGNOLIA / QUEEN ANNE,47.64391816,-122.3501253
Senior Care Community,98109,MAGNOLIA / QUEEN ANNE,47.64411095,-122.3479548
Mixed Use Property,98109,LAKE UNION,47.62230021,-122.34144640000001
Worship Facility,98119,MAGNOLIA / QUEEN ANNE,47.6222833,-122.36103179999999
Office,98109,MAGNOLIA / QUEEN ANNE,47.61888324,-122.35712120000001
Office,98122,EAST,47.61212272,-122.32200559999998
Other - Education,98122,EAST,47.60873934,-122.32031200000002
Medical Office,98122,EAST,47.60840241,-122.3203412
Office,98107,SHARED: BALLARD & LAKE UNION,47.66260444,-122.36462859999999
Non-Refrigerated Warehouse,98107,BALLARD,47.66388519,-122.3680682
Non-Refrigerated Warehouse,98107,BALLARD,47.65883454,-122.366972
Distribution Center,98107,BALLARD,47.65823532,-122.3663814
Mixed Use Property,98109,LAKE UNION,47.62295628,-122.3388493
Restaurant,98109,LAKE UNION,47.62346268,-122.33804321
Retail Store,98109,LAKE UNION,47.62388317,-122.3380453
Office,98109,LAKE UNION,47.62391992,-122.33839363
Office,98109,LAKE UNION,47.62261963,-122.33674622
Office,98109,LAKE UNION,47.62354214,-122.33620619999999
Office,98109,LAKE UNION,47.62799119,-122.3313097
Other,98109,MAGNOLIA / QUEEN ANNE,47.62124083,-122.35343219999999
Worship Facility,98109,MAGNOLIA / QUEEN ANNE,47.61884689,-122.35321045
Other,98109,MAGNOLIA / QUEEN ANNE,47.62005752,-122.35134950000001
Other,98109,MAGNOLIA / QUEEN ANNE,47.62126068,-122.35175109999999
Museum,98109,MAGNOLIA / QUEEN ANNE,47.62189039,-122.35027520000001
Other - Recreation,98109,MAGNOLIA / QUEEN ANNE,47.62048515,-122.349304
Other,98109,MAGNOLIA / QUEEN ANNE,47.6219494,-122.34992199999999
Office,98109,LAKE UNION,47.620536799999996,-122.33886719
Office,98109,LAKE UNION,47.62049677,-122.3375602
Office,98109,LAKE UNION,47.62028885,-122.3375473
Office,98109,LAKE UNION,47.62027313,-122.33811100000001
Office,98109,LAKE UNION,47.620536799999996,-122.33806609999999
Mixed Use Property,98109,MAGNOLIA / QUEEN ANNE,47.62232113,-122.35648219999999
Office,98102,LAKE UNION,47.63659738,-122.32823219999999
Office,98102,LAKE UNION,47.63613246,-122.32718759999999
K-12 School,98102,EAST,47.63252748,-122.32078840000001
Office,98109,LAKE UNION,47.62007385,-122.3454149
Mixed Use Property,98109,LAKE UNION,47.618967700000006,-122.3446084
Office,98109,LAKE UNION,47.61948966,-122.34459939999999
Worship Facility,98109,LAKE UNION,47.62006912,-122.34070659999999
Laboratory,98119,MAGNOLIA / QUEEN ANNE,47.62239431,-122.3623497
Office,98119,MAGNOLIA / QUEEN ANNE,47.61952541,-122.35846129999999
K-12 School,98125,NORTHWEST,47.72750101,-122.32703719999999
K-12 School,98125,SHARED: NORTH & NORTHWEST,47.71334315,-122.3145902
K-12 School,98116,SOUTHWEST,47.56546417,-122.3968811
Office,98102,LAKE UNION,47.63248578,-122.3252227
Retail Store,98102,LAKE UNION,47.63247757,-122.32660020000002
K-12 School,98118,SOUTHEAST,47.52494786,-122.2747335
K-12 School,98118,SOUTHEAST,47.52427301,-122.27143980000001
Worship Facility,98108,GREATER DUWAMISH,47.55057128,-122.302943
Other - Recreation,98112,EAST,47.63938403,-122.29116709999998
K-12 School,98125,NORTH,47.72466237,-122.30694
"Repair Services (Vehicle, Shoe, Locksmith, etc)",98125,NORTH,47.72044148,-122.2970446
Non-Refrigerated Warehouse,98108,GREATER DUWAMISH,47.53908726,-122.31980209999999
Worship Facility,98122,EAST,47.60319489,-122.32040729999999
Adult Education,98118,SOUTHEAST,47.56029016,-122.2891371
Non-Refrigerated Warehouse,98118,SOUTHEAST,47.54941353,-122.2866398
Office,98118,GREATER DUWAMISH,47.546925,-122.28713929999999
Office,98109,LAKE UNION,47.62047684,-122.34667409999999
Worship Facility,98115,NORTH,47.68573889,-122.31841740000002
Senior Care Community,98109,LAKE UNION,47.61927032,-122.33372498
Worship Facility,98126,SOUTHWEST,47.53442484,-122.3770926
Office,98107,SHARED: BALLARD & LAKE UNION,47.65800828,-122.36533490000002
K-12 School,98126,DELRIDGE NEIGHBORHOODS,47.54173518,-122.37373970000002
Non-Refrigerated Warehouse,98108,GREATER DUWAMISH,47.56075287,-122.32642365
Refrigerated Warehouse,98108,GREATER DUWAMISH,47.56067088,-122.32711200000001
Manufacturing/Industrial Plant,98108,GREATER DUWAMISH,47.55014531,-122.33034380000001
Non-Refrigerated Warehouse,98108,GREATER DUWAMISH,47.56065507,-122.32612560000001
Non-Refrigerated Warehouse,98108,GREATER DUWAMISH,47.54809189,-122.32540894
Non-Refrigerated Warehouse,98108,GREATER DUWAMISH,47.549428000000006,-122.3254576
Office,98108,GREATER DUWAMISH,47.54975663,-122.32598840000001
K-12 School,98102,EAST,47.64171214,-122.31738590000002
Parking,98102,EAST,47.64171214,-122.31738590000002
K-12 School,98102,EAST,47.64171214,-122.31738590000002
Distribution Center,98103,LAKE UNION,47.65766491,-122.34272390000001
Senior Care Community,98133,NORTHWEST,47.72620398,-122.3564757
Worship Facility,98133,NORTHWEST,47.7255637,-122.3577991
Non-Refrigerated Warehouse,98108,GREATER DUWAMISH,47.52183151,-122.32133484
Non-Refrigerated Warehouse,98108,GREATER DUWAMISH,47.51992759,-122.32126470000001
Non-Refrigerated Warehouse,98108,GREATER DUWAMISH,47.51893997,-122.32105255
Non-Refrigerated Warehouse,98108,GREATER DUWAMISH,47.51912749,-122.321168
Non-Refrigerated Warehouse,98108,GREATER DUWAMISH,47.51967239,-122.32104492
Non-Refrigerated Warehouse,98108,GREATER DUWAMISH,47.51917763,-122.3196011
Office,98125,NORTH,47.7007902,-122.3272232
Other - Recreation,98115,NORTH,47.69883113,-122.32473759999999
Medical Office,98115,NORTH,47.70007386,-122.32524450000001
Medical Office,98115,NORTH,47.7008481,-122.3237648
Self-Storage Facility,98105,NORTHEAST,47.66350353,-122.29490759999999
Mixed Use Property,98105,NORTHEAST,47.6621067,-122.2930208
Medical Office,98105,NORTHEAST,47.66176782,-122.29255
Non-Refrigerated Warehouse,98105,NORTHEAST,47.66278765,-122.29532350000001
Supermarket/Grocery Store,98105,NORTHEAST,47.66208951,-122.29510490000001
Office,98199,MAGNOLIA / QUEEN ANNE,47.63982634,-122.3990624
Worship Facility,98107,BALLARD,47.67478203,-122.38249429999999
College/University,98122,CENTRAL,47.60869656,-122.31459440000002
Worship Facility,98122,CENTRAL,47.6096974,-122.30851329999999
Non-Refrigerated Warehouse,98103,LAKE UNION,47.65026727,-122.34173
Worship Facility,98118,SOUTHEAST,47.54179702,-122.27030459999999
Retail Store,98118,GREATER DUWAMISH,47.53847674,-122.2828621
Supermarket/Grocery Store,98118,GREATER DUWAMISH,47.53747211,-122.28303970000002
K-12 School,98125,NORTH,47.70716999,-122.2846645
Retail Store,98108,GREATER DUWAMISH,47.55046848,-122.32747040000001
Non-Refrigerated Warehouse,98108,GREATER DUWAMISH,47.54780017,-122.32307970000001
Retail Store,98108,GREATER DUWAMISH,47.54919217,-122.3219868
K-12 School,98107,BALLARD,47.67054427,-122.37454709999999
Supermarket/Grocery Store,98107,BALLARD,47.66960543,-122.37477150000001
Supermarket/Grocery Store,98107,BALLARD,47.6682729,-122.37426229999998
Other - Recreation,98107,BALLARD,47.66622062,-122.3746623
Mixed Use Property,98107,BALLARD,47.66431539,-122.3730423
Non-Refrigerated Warehouse,98107,BALLARD,47.66431539,-122.3730423
Non-Refrigerated Warehouse,98107,BALLARD,47.66440226,-122.37247930000001
Library,98107,BALLARD,47.66984275,-122.3843366
Social/Meeting Hall,98107,BALLARD,47.668941499999995,-122.38242340000002
Strip Mall,98107,BALLARD,47.66897819,-122.3860943
Other,98107,BALLARD,47.67483387,-122.37317309999999
Worship Facility,98107,BALLARD,47.66327432,-122.3744499
Retail Store,98107,BALLARD,47.66320164,-122.37272639999999
Office,98107,BALLARD,47.66247704,-122.36956059999999
Office,98107,BALLARD,47.66240689999999,-122.3730847
Retail Store,98107,SHARED: BALLARD & NORTHWEST,47.67511967,-122.36545359999998
Supermarket/Grocery Store,98119,MAGNOLIA / QUEEN ANNE,47.64947283,-122.37785900000002
Office,98119,MAGNOLIA / QUEEN ANNE,47.65015749,-122.37786059999999
Office,98119,MAGNOLIA / QUEEN ANNE,47.65251735,-122.37586100000001
Non-Refrigerated Warehouse,98199,MAGNOLIA / QUEEN ANNE,47.66217902,-122.3877672
Manufacturing/Industrial Plant,98199,MAGNOLIA / QUEEN ANNE,47.661294899999994,-122.387405
Office,98199,MAGNOLIA / QUEEN ANNE,47.66078697,-122.385871
Non-Refrigerated Warehouse,98199,MAGNOLIA / QUEEN ANNE,47.66189649,-122.38901240000001
Retail Store,98117,BALLARD,47.69169639,-122.3761399
Self-Storage Facility,98119,MAGNOLIA / QUEEN ANNE,47.64454136,-122.3758253
Self-Storage Facility,98119,MAGNOLIA / QUEEN ANNE,47.64421262,-122.3757483
Office,98119,MAGNOLIA / QUEEN ANNE,47.65503237,-122.37397469999999
Distribution Center,98119,MAGNOLIA / QUEEN ANNE,47.65577157,-122.3726251
Distribution Center,98199,MAGNOLIA / QUEEN ANNE,47.66158791,-122.3906034
Office,98199,MAGNOLIA / QUEEN ANNE,47.66036376,-122.38620467
Office,98199,MAGNOLIA / QUEEN ANNE,47.6589265,-122.3838031
Office,98199,MAGNOLIA / QUEEN ANNE,47.65795612,-122.38373
Non-Refrigerated Warehouse,98107,BALLARD,47.66359229,-122.3806023
Office,98107,BALLARD,47.66684341,-122.38414001
Other,98107,BALLARD,47.66637392,-122.38272749999999
Office,98107,BALLARD,47.665006,-122.38025084
Office,98107,BALLARD,47.66431841,-122.3800014
Self-Storage Facility,98107,BALLARD,47.66358861,-122.37951709999999
Mixed Use Property,98107,BALLARD,47.66843058,-122.38183529999999
Other - Recreation,98125,NORTH,47.70648872,-122.29386509999999
Office,98125,NORTH,47.71890106,-122.29960259999999
K-12 School,98125,NORTHWEST,47.731823,-122.32625149999998
Distribution Center,98106,DELRIDGE NEIGHBORHOODS,47.55828486,-122.3523537
Worship Facility,98126,SOUTHWEST,47.5170917,-122.3779648
K-12 School,98105,NORTHEAST,47.66630781,-122.3178809
Mixed Use Property,98103,NORTHWEST,47.68590276,-122.3372976
Other,98199,MAGNOLIA / QUEEN ANNE,47.65822335,-122.38431820000001
Office,98199,MAGNOLIA / QUEEN ANNE,47.65708363,-122.3837595
Office,98199,MAGNOLIA / QUEEN ANNE,47.65649246,-122.38376389999999
Mixed Use Property,98119,MAGNOLIA / QUEEN ANNE,47.6511784,-122.37884309999998
Non-Refrigerated Warehouse,98119,MAGNOLIA / QUEEN ANNE,47.64878477,-122.37987009999999
Other - Entertainment/Public Assembly,98112,EAST,47.63212701,-122.3151412
Office,98133,NORTHWEST,47.70794099,-122.3332257
Retail Store,98125,NORTH,47.70745665,-122.32318819
Senior Care Community,98125,SHARED: NORTH & NORTHWEST,47.71058965,-122.3265178
Office,98133,NORTHWEST,47.70838818,-122.3332973
Mixed Use Property,98125,SHARED: NORTH & NORTHWEST,47.70982623,-122.31863799999999
Retail Store,98125,NORTH,47.70724183,-122.32256399999999
Medical Office,98125,NORTH,47.70661163,-122.32263184
Self-Storage Facility,98125,NORTH,47.70789044,-122.3188821
Other - Recreation,98125,NORTH,47.70519257,-122.32242584
K-12 School,98106,DELRIDGE NEIGHBORHOODS,47.51711754,-122.35972290000001
"Repair Services (Vehicle, Shoe, Locksmith, etc)",98108,DELRIDGE NEIGHBORHOODS,47.53391013,-122.33726840000001
Office,98106,DELRIDGE NEIGHBORHOODS,47.53292767,-122.34026589999999
Other,98109,MAGNOLIA / QUEEN ANNE,47.63142293,-122.34137390000001
Other,98133,NORTHWEST,47.70969561,-122.34565979999999
Medical Office,98133,NORTHWEST,47.70558717,-122.3349479
Hospital (General Medical & Surgical),98133,NORTHWEST,47.71460657,-122.33685259999999
Worship Facility,98133,NORTHWEST,47.71756004,-122.33203020000002
Supermarket/Grocery Store,98144,GREATER DUWAMISH,47.57898152,-122.3129112
Medical Office,98112,EAST,47.61997738,-122.3121244
Distribution Center,98108,DELRIDGE NEIGHBORHOODS,47.5315885,-122.33569909999999
Adult Education,98108,DELRIDGE NEIGHBORHOODS,47.51875781,-122.3370906
Other - Services,98108,DELRIDGE NEIGHBORHOODS,47.52959109,-122.3355729
Non-Refrigerated Warehouse,98144,DOWNTOWN,47.59790914,-122.3154892
Office,98144,DOWNTOWN,47.59711677,-122.3180368
Medical Office,98144,DOWNTOWN,47.59703102,-122.3168033
Office,98144,DOWNTOWN,47.59726811,-122.3158318
K-12 School,98108,GREATER DUWAMISH,47.55786816,-122.3185601
Supermarket/Grocery Store,98117,BALLARD,47.69020556,-122.37611229999999
Retail Store,98133,NORTHWEST,47.72285043,-122.34597759999998
Other,98118,SOUTHEAST,47.54547838,-122.2759121
Office,98125,NORTH,47.72971465,-122.2927811
Non-Refrigerated Warehouse,98125,NORTH,47.72068751,-122.3009125
Other,98125,NORTH,47.72083444,-122.2997946
"Repair Services (Vehicle, Shoe, Locksmith, etc)",98106,SHARED: GREATER DUWAMISH & DELRIDGE NEIGHBORHOODS,47.56323127,-122.3506942
Other,98106,DELRIDGE NEIGHBORHOODS,47.57061835,-122.35635500000001
Office,98106,DELRIDGE NEIGHBORHOODS,47.56876754,-122.36369180000001
Office,98119,MAGNOLIA / QUEEN ANNE,47.624820899999996,-122.35762609999999
Restaurant,98126,SOUTHWEST,47.58667982,-122.37681529999999
Performing Arts,98119,MAGNOLIA / QUEEN ANNE,47.62599182,-122.35846709999998
Non-Refrigerated Warehouse,98119,MAGNOLIA / QUEEN ANNE,47.65676796,-122.3704009
Other,98119,MAGNOLIA / QUEEN ANNE,47.65802175,-122.3828922
Office,98103,LAKE UNION,47.65101371,-122.3553519
Office,98102,LAKE UNION,47.64160748,-122.3255231
Office,98102,LAKE UNION,47.64047271,-122.3255112
Office,98102,LAKE UNION,47.63997419,-122.3255225
Office,98102,LAKE UNION,47.64108252,-122.32622679999999
Worship Facility,98106,DELRIDGE NEIGHBORHOODS,47.52126544,-122.35469509999999
Worship Facility,98106,DELRIDGE NEIGHBORHOODS,47.51981437,-122.35475559999999
Non-Refrigerated Warehouse,98108,GREATER DUWAMISH,47.54644126,-122.31706909999998
Social/Meeting Hall,98136,SOUTHWEST,47.52196442,-122.38797040000001
Worship Facility,98136,SOUTHWEST,47.52104275,-122.38700659999999
Supermarket/Grocery Store,98118,SOUTHEAST,47.52263582,-122.268551
K-12 School,98117,BALLARD,47.69493726,-122.3870895
Non-Refrigerated Warehouse,98119,MAGNOLIA / QUEEN ANNE,47.65685926,-122.3752389
Non-Refrigerated Warehouse,98119,MAGNOLIA / QUEEN ANNE,47.63283757,-122.3753418
Office,98119,MAGNOLIA / QUEEN ANNE,47.63069544,-122.37433300000001
Mixed Use Property,98119,MAGNOLIA / QUEEN ANNE,47.63035202,-122.37393951
Office,98119,MAGNOLIA / QUEEN ANNE,47.631367499999996,-122.37387450000001
Worship Facility,98146,SOUTHWEST,47.50943452,-122.37402250000001
Office,98103,LAKE UNION,47.66114819,-122.34176000000001
K-12 School,98108,GREATER DUWAMISH,47.55250231,-122.29751609999998
Medical Office,98116,SOUTHWEST,47.57290555,-122.38641340000001
Distribution Center,98108,GREATER DUWAMISH,47.52876282,-122.32761880000001
K-12 School,98144,CENTRAL,47.59725267,-122.30583429999999
Office,98144,CENTRAL,47.59975168,-122.31443519999999
Office,98144,CENTRAL,47.59974199,-122.31301140000001
Office,98144,CENTRAL,47.59689331,-122.31126404
Office,98122,CENTRAL,47.61737581,-122.3051172
Office,98108,GREATER DUWAMISH,47.55489374,-122.32501119999999
Non-Refrigerated Warehouse,98108,GREATER DUWAMISH,47.55456447,-122.3262284
K-12 School,98115,NORTH,47.69077274,-122.3187621
Other,98108,GREATER DUWAMISH,47.52356669,-122.318109
K-12 School,98108,GREATER DUWAMISH,47.52347517,-122.3247703
K-12 School,98118,SOUTHEAST,47.55095067,-122.2800394
Self-Storage Facility,98118,GREATER DUWAMISH,47.5450515,-122.2859112
Worship Facility,98118,SOUTHEAST,47.54180145,-122.28297424
Retail Store,98118,GREATER DUWAMISH,47.5390235,-122.2824236
Self-Storage Facility,98115,NORTHEAST,47.69327377,-122.304978
Non-Refrigerated Warehouse,98108,GREATER DUWAMISH,47.56818993,-122.3274105
Distribution Center,98108,GREATER DUWAMISH,47.56767553,-122.3261154
Distribution Center,98108,GREATER DUWAMISH,47.56877841,-122.3249835
"Repair Services (Vehicle, Shoe, Locksmith, etc)",98108,GREATER DUWAMISH,47.56660145,-122.32468119999999
Non-Refrigerated Warehouse,98108,GREATER DUWAMISH,47.56661987,-122.32508087
Non-Refrigerated Warehouse,98108,GREATER DUWAMISH,47.56670187,-122.32180290000001
K-12 School,98106,DELRIDGE NEIGHBORHOODS,47.53945923,-122.35896301
Office,98115,NORTH,47.70007176,-122.30305190000001
Retail Store,98115,NORTH,47.70052234,-122.3037562
Mixed Use Property,98125,NORTH,47.70171366,-122.302613
Medical Office,98125,NORTH,47.70439219,-122.32281499999999
Other,98116,SOUTHWEST,47.5639775,-122.3871858
Worship Facility,98116,SOUTHWEST,47.571777000000004,-122.387161
Worship Facility,98108,GREATER DUWAMISH,47.55399286,-122.3152868
Medical Office,98105,NORTHEAST,47.66147138,-122.28622920000001
Medical Office,98105,NORTHEAST,47.66147138,-122.28622920000001
Other/Specialty Hospital,98122,CENTRAL,47.60779764,-122.3123511
Worship Facility,98103,NORTHWEST,47.68358093,-122.3547242
Office,98102,LAKE UNION,47.6356436,-122.3251075
Office,98122,CENTRAL,47.60594736,-122.31378020000001
Retail Store,98118,SOUTHEAST,47.56515299,-122.28785970000001
K-12 School,98118,SOUTHEAST,47.56532018,-122.2830886
Medical Office,98118,SOUTHEAST,47.56364916,-122.285728
Mixed Use Property,98118,SOUTHEAST,47.56128581,-122.28339620000001
Automobile Dealership,98125,NORTH,47.71387426,-122.2979023
Other,98103,NORTHWEST,47.69548916,-122.34018780000001
Mixed Use Property,98103,NORTHWEST,47.69728551,-122.3463697
Office,98102,EAST,47.61356613,-122.3200439
Mixed Use Property,98122,EAST,47.61322021,-122.31723022
Non-Refrigerated Warehouse,98122,EAST,47.61468283,-122.31776540000001
Supermarket/Grocery Store,98115,NORTHEAST,47.68250881,-122.2893179
K-12 School,98115,NORTHEAST,47.68070394,-122.27580309999999
Worship Facility,98115,NORTHEAST,47.68072624,-122.28996090000001
Worship Facility,98115,NORTHEAST,47.67983278,-122.27741200000001
Office,98105,NORTHEAST,47.66889257,-122.2833226
Supermarket/Grocery Store,98105,NORTHEAST,47.66822809,-122.2836379
Movie Theater,98133,NORTHWEST,47.70182669,-122.34246200000001
Supermarket/Grocery Store,98133,NORTHWEST,47.70265004,-122.34247890000002
Non-Refrigerated Warehouse,98108,GREATER DUWAMISH,47.5309583,-122.3320685
Non-Refrigerated Warehouse,98108,GREATER DUWAMISH,47.5309583,-122.3320685
Non-Refrigerated Warehouse,98108,GREATER DUWAMISH,47.5309583,-122.3320685
Non-Refrigerated Warehouse,98108,GREATER DUWAMISH,47.52593209,-122.3308402
Non-Refrigerated Warehouse,98108,GREATER DUWAMISH,47.52593209,-122.3308402
Non-Refrigerated Warehouse,98108,GREATER DUWAMISH,47.52593209,-122.3308402
Non-Refrigerated Warehouse,98108,GREATER DUWAMISH,47.52593209,-122.3308402
K-12 School,98122,CENTRAL,47.60870162,-122.29982290000001
K-12 School,98115,NORTHEAST,47.69356813,-122.2893394
Retail Store,98115,NORTHEAST,47.69064238,-122.2901908
Medical Office,98126,DELRIDGE NEIGHBORHOODS,47.53409853,-122.36615890000002
Office,98126,DELRIDGE NEIGHBORHOODS,47.53409853,-122.36615890000002
Other,98106,DELRIDGE NEIGHBORHOODS,47.53588197,-122.36181499999999
Non-Refrigerated Warehouse,98106,DELRIDGE NEIGHBORHOODS,47.53842482,-122.361646
Mixed Use Property,98126,SOUTHWEST,47.57280318,-122.37045800000001
K-12 School,98115,NORTH,47.69878269,-122.3081331
College/University,98103,LAKE UNION,47.652324,-122.342193
Retail Store,98126,DELRIDGE NEIGHBORHOODS,47.52131741,-122.36689740000001
Retail Store,98126,DELRIDGE NEIGHBORHOODS,47.52131741,-122.36689740000001
Other - Recreation,98126,DELRIDGE NEIGHBORHOODS,47.52788744,-122.3690121
Mixed Use Property,98117,BALLARD,47.69733391,-122.3736216
Retail Store,98103,NORTHWEST,47.6911139,-122.3571658
Non-Refrigerated Warehouse,98122,CENTRAL,47.60201243,-122.31644159999999
Non-Refrigerated Warehouse,98122,CENTRAL,47.60234022,-122.31596029999999
Self-Storage Facility,98122,CENTRAL,47.61246498,-122.3162959
Senior Care Community,98125,NORTH,47.70175841,-122.32358909999998
Retail Store,98117,BALLARD,47.69291203,-122.37588500000001
Retail Store,98118,SOUTHEAST,47.54739468,-122.2848571
K-12 School,98126,DELRIDGE NEIGHBORHOODS,47.53888005,-122.37558909999998
Worship Facility,98199,MAGNOLIA / QUEEN ANNE,47.64000193,-122.3973945
Self-Storage Facility,98133,NORTHWEST,47.70276573,-122.35627140000001
Office,98144,CENTRAL,47.60120669,-122.301603
Retail Store,98144,CENTRAL,47.6000464,-122.301695
Supermarket/Grocery Store,98144,CENTRAL,47.59845416,-122.300978
Retail Store,98144,CENTRAL,47.59845416,-122.300978
Mixed Use Property,98119,MAGNOLIA / QUEEN ANNE,47.63452966,-122.37575690000001
K-12 School,98117,BALLARD,47.676663500000004,-122.38051409999998
Worship Facility,98117,BALLARD,47.67657891,-122.38249409999999
Worship Facility,98117,BALLARD,47.67644797,-122.38500330000001
Other,98108,GREATER DUWAMISH,47.54079117,-122.32322109999998
Other - Mall,98144,DOWNTOWN,47.59890747,-122.31678772
Self-Storage Facility,98115,NORTHEAST,47.67925262,-122.31713867
Self-Storage Facility,98115,NORTHEAST,47.67909165,-122.3171136
Non-Refrigerated Warehouse,98144,GREATER DUWAMISH,47.58644499,-122.3047107
Outpatient Rehabilitation/Physical Therapy,98144,GREATER DUWAMISH,47.58809497,-122.310103
Worship Facility,98133,NORTHWEST,47.708942799999996,-122.35488429999998
"Personal Services (Health/Beauty, Dry Cleaning, etc)",98125,NORTH,47.71612328,-122.2956356
Office,98118,SOUTHEAST,47.56026365,-122.28582420000001
Non-Refrigerated Warehouse,98108,GREATER DUWAMISH,47.56497779,-122.3220513
K-12 School,98116,SOUTHWEST,47.57264863,-122.39680530000001
College/University,98119,MAGNOLIA / QUEEN ANNE,47.64835098,-122.36160990000002
College/University,98119,MAGNOLIA / QUEEN ANNE,47.64835098,-122.36160990000002
Office,98125,NORTH,47.7087086,-122.30088909999998
K-12 School,98102,EAST,47.62474422,-122.31829109999998
Worship Facility,98102,EAST,47.62336096,-122.3202773
K-12 School,98115,NORTHEAST,47.68558967,-122.2825904
Self-Storage Facility,98144,GREATER DUWAMISH,47.59283356,-122.3103483
K-12 School,98122,CENTRAL,47.61786926,-122.2864926
Restaurant,98109,LAKE UNION,47.62918016,-122.3316949
Mixed Use Property,98109,LAKE UNION,47.62782862,-122.33316
Automobile Dealership,98109,MAGNOLIA / QUEEN ANNE,47.62617011,-122.3401021
Other - Entertainment/Public Assembly,98109,MAGNOLIA / QUEEN ANNE,47.62633133,-122.33939362
Restaurant,98109,LAKE UNION,47.63739737,-122.33985449999999
Office,98109,LAKE UNION,47.63610771,-122.3397915
Office,98109,LAKE UNION,47.63537212,-122.33977820000001
Other,98115,NORTHEAST,47.67634405,-122.3035123
Worship Facility,98122,CENTRAL,47.611248100000005,-122.28794029999999
Mixed Use Property,98105,NORTHEAST,47.66821286,-122.29989740000002
Self-Storage Facility,98109,MAGNOLIA / QUEEN ANNE,47.64635558,-122.35083909999999
Non-Refrigerated Warehouse,98109,LAKE UNION,47.64257724,-122.34250949999999
Office,98103,LAKE UNION,47.64736605,-122.3408543
Retail Store,98105,NORTHEAST,47.66095275,-122.31922229999999
Medical Office,98115,NORTHEAST,47.67439423,-122.31830740000001
Other,98122,EAST,47.61469383,-122.31723000000001
Office,98122,EAST,47.61459351,-122.31725311
Mixed Use Property,98122,EAST,47.614276000000004,-122.317245
Mixed Use Property,98122,EAST,47.6143471,-122.31918540000001
Office,98122,EAST,47.61508179,-122.31845093
Retail Store,98122,EAST,47.61490059,-122.318474
Office,98122,EAST,47.614349,-122.31866399999998
Retail Store,98122,EAST,47.61466354,-122.3198426
Multifamily Housing,98122,EAST,47.61432913,-122.3197623
Other,98105,NORTHEAST,47.65726201,-122.3193136
Worship Facility,98122,EAST,47.61432065,-122.3264629
Hospital (General Medical & Surgical),98116,SOUTHWEST,47.58730129,-122.3866765
Non-Refrigerated Warehouse,98108,GREATER DUWAMISH,47.55314407,-122.33290649999999
Office,98122,EAST,47.61544497,-122.326452
Other - Entertainment/Public Assembly,98109,MAGNOLIA / QUEEN ANNE,47.63646451,-122.34220090000001
Supermarket/Grocery Store,98112,EAST,47.62046363,-122.31312959999998
Mixed Use Property,98105,NORTHEAST,47.66811027,-122.27677620000001
Worship Facility,98117,BALLARD,47.6854905,-122.3872006
Other - Entertainment/Public Assembly,98112,CENTRAL,47.6231954,-122.29002050000001
Other - Recreation,98112,EAST,47.62745928,-122.27971480000001
K-12 School,98112,EAST,47.63426471,-122.28510829999999
Senior Care Community,98112,EAST,47.63426767,-122.2763832
Worship Facility,98118,SOUTHEAST,47.53857664,-122.28014409999999
Residence Hall/Dormitory,98109,MAGNOLIA / QUEEN ANNE,47.63659994,-122.34420259999999
Self-Storage Facility,98126,DELRIDGE NEIGHBORHOODS,47.56780941,-122.36971399999999
K-12 School,98133,NORTHWEST,47.71357229,-122.3538988
Mixed Use Property,98122,EAST,47.61433622,-122.32499579999998
Retail Store,98122,EAST,47.6138696,-122.32477820000001
K-12 School,98122,EAST,47.61339284,-122.32591570000001
Other - Entertainment/Public Assembly,98122,EAST,47.614456,-122.32588100000001
Bank Branch,98109,MAGNOLIA / QUEEN ANNE,47.63307036,-122.3426568
Office,98109,MAGNOLIA / QUEEN ANNE,47.63451912,-122.34075849999999
K-12 School,98126,SOUTHWEST,47.55282499,-122.37990490000001
Office,98119,MAGNOLIA / QUEEN ANNE,47.63990614,-122.36718119999999
Senior Care Community,98118,SOUTHEAST,47.53500877,-122.2657673
Office,98109,LAKE UNION,47.6227951,-122.33079529
Office,98122,EAST,47.615471,-122.3237344
Senior Care Community,98103,SHARED: LAKE UNION & NORTHWEST,47.66322205,-122.35322190000001
K-12 School,98118,GREATER DUWAMISH,47.5305357,-122.2849993
Senior Care Community,98125,NORTH,47.70882463,-122.28894270000002
Office,98103,LAKE UNION,47.66117154,-122.3389096
Office,98103,LAKE UNION,47.64830236,-122.3343852
Non-Refrigerated Warehouse,98133,NORTHWEST,47.70860412,-122.3435635
Bank Branch,98105,NORTHEAST,47.66147232,-122.31279755
Retail Store,98105,NORTHEAST,47.6618576,-122.31278992
Worship Facility,98105,NORTHEAST,47.66441644,-122.3123112
Non-Refrigerated Warehouse,98103,LAKE UNION,47.64733806,-122.33456159999999
K-12 School,98103,LAKE UNION,47.66388205,-122.3368138
Supermarket/Grocery Store,98103,LAKE UNION,47.66178978,-122.3357453
Office,98105,NORTHEAST,47.66342809,-122.31342479999999
Supermarket/Grocery Store,98105,NORTHEAST,47.66430287,-122.31390220000002
Retail Store,98105,NORTHEAST,47.66162977,-122.31317081
Mixed Use Property,98105,NORTHEAST,47.66174555,-122.3139463
Office,98102,LAKE UNION,47.63415909,-122.32641602
Medical Office,98118,SOUTHEAST,47.51946634,-122.26930300000001
Worship Facility,98105,NORTHEAST,47.66529949,-122.3104352
Social/Meeting Hall,98105,NORTHEAST,47.66456008,-122.30998570000001
Worship Facility,98115,NORTHEAST,47.67841289,-122.3195051
Office,98115,NORTHWEST,47.67821286,-122.32329070000002
Worship Facility,98115,NORTHWEST,47.67790172,-122.3255884
Non-Refrigerated Warehouse,98105,LAKE UNION,47.65414835,-122.32624579999998
Office,98105,LAKE UNION,47.65376324,-122.32717659999999
Worship Facility,98125,NORTH,47.71705466,-122.2857883
K-12 School,98115,NORTHWEST,47.6763096,-122.329361
K-12 School,98105,LAKE UNION,47.65702213,-122.3240145
Social/Meeting Hall,98122,CENTRAL,47.602844,-122.31458590000001
Other - Lodging/Residential,98105,NORTHEAST,47.66190379,-122.3100685
Residence Hall/Dormitory,98105,NORTHEAST,47.66161815,-122.31008590000002
Residence Hall/Dormitory,98105,NORTHEAST,47.66279161,-122.30868290000001
Residence Hall/Dormitory,98105,NORTHEAST,47.66153116,-122.30870520000002
Residence Hall/Dormitory,98105,NORTHEAST,47.66238207,-122.3080365
Mixed Use Property,98122,EAST,47.60135546,-122.32010819999999
Senior Care Community,98122,CENTRAL,47.60132366,-122.3107558
Performing Arts,98122,CENTRAL,47.60133568,-122.30982979999999
K-12 School,98122,CENTRAL,47.60329437,-122.30595290000001
College/University,98102,EAST,47.62533653,-122.3230355
Other - Recreation,98117,BALLARD,47.68469112,-122.3828189
Supermarket/Grocery Store,98116,SOUTHWEST,47.58196731,-122.384804
Mixed Use Property,98112,EAST,47.62696595,-122.29160929999999
Mixed Use Property,98105,NORTHEAST,47.66282315,-122.31777199999999
Worship Facility,98105,NORTHEAST,47.661542299999994,-122.2787693
K-12 School,98105,NORTHEAST,47.66211315,-122.2778902
Non-Refrigerated Warehouse,98108,GREATER DUWAMISH,47.54762719,-122.3274953
Office,98108,GREATER DUWAMISH,47.54493204,-122.3253747
Residence Hall/Dormitory,98105,NORTHEAST,47.66280557,-122.30800479999999
Worship Facility,98144,SOUTHEAST,47.58667585,-122.302109
Non-Refrigerated Warehouse,98108,GREATER DUWAMISH,47.54479405,-122.3268865
Non-Refrigerated Warehouse,98108,GREATER DUWAMISH,47.54496192,-122.32759779999999
Distribution Center,98108,GREATER DUWAMISH,47.54345532,-122.32771100000001
Supermarket/Grocery Store,98136,SOUTHWEST,47.54447738,-122.3862101
Mixed Use Property,98119,MAGNOLIA / QUEEN ANNE,47.65523769,-122.37116840000002
K-12 School,98177,NORTHWEST,47.70614609,-122.36124960000001
K-12 School,98117,BALLARD,47.68585535,-122.38904840000002
Other,98122,EAST,47.61316841,-122.3224869
Other,98155,SHARED: NORTH & NORTHWEST,47.73368341,-122.3136676
K-12 School,98107,BALLARD,47.67344878,-122.39177360000001
Supermarket/Grocery Store,98115,NORTHEAST,47.68194711,-122.3169626
Worship Facility,98105,NORTHEAST,47.66285518,-122.3149251
Office,98122,CENTRAL,47.60183209,-122.2840706
Mixed Use Property,98112,EAST,47.62159798,-122.3123112
Distribution Center,98119,MAGNOLIA / QUEEN ANNE,47.63327691,-122.3627781
Other,98119,MAGNOLIA / QUEEN ANNE,47.63256835,-122.3614257
Non-Refrigerated Warehouse,98108,GREATER DUWAMISH,47.53092023,-122.3277723
Non-Refrigerated Warehouse,98108,GREATER DUWAMISH,47.53304631,-122.3260129
Distribution Center,98108,GREATER DUWAMISH,47.5337958,-122.33057020000001
Non-Refrigerated Warehouse,98108,GREATER DUWAMISH,47.53609805,-122.3295635
Other,98109,MAGNOLIA / QUEEN ANNE,47.62519556,-122.35316929999999
Non-Refrigerated Warehouse,98108,GREATER DUWAMISH,47.56620026,-122.32437134
Non-Refrigerated Warehouse,98108,GREATER DUWAMISH,47.56507492,-122.32473755
Refrigerated Warehouse,98108,GREATER DUWAMISH,47.56479062,-122.32661404
Non-Refrigerated Warehouse,98108,GREATER DUWAMISH,47.56443787,-122.32465363
Office,98103,LAKE UNION,47.65575628,-122.3420679
Office,98133,NORTHWEST,47.70346877,-122.33421820000001
K-12 School,98125,NORTHWEST,47.71428453,-122.32994939999999
Worship Facility,98125,NORTHWEST,47.71439604,-122.32797409999999
Performing Arts,98109,MAGNOLIA / QUEEN ANNE,47.62526703,-122.35187531
Other/Specialty Hospital,98112,SHARED: CENTRAL & EAST,47.62341357,-122.2966509
Worship Facility,98125,SHARED: NORTH & NORTHWEST,47.71861997,-122.32163390000001
K-12 School,98125,SHARED: NORTH & NORTHWEST,47.71920385,-122.32184879999998
Library,98103,NORTHWEST,47.68745354,-122.35477970000001
K-12 School,98112,CENTRAL,47.62287683,-122.28801709999999
Other - Lodging/Residential,98122,SHARED: CENTRAL & EAST,47.61795736,-122.30847560000001
Supermarket/Grocery Store,98125,SHARED: NORTH & NORTHWEST,47.70938625,-122.31720130000001
"Repair Services (Vehicle, Shoe, Locksmith, etc)",98122,EAST,47.61340332,-122.32035065
Mixed Use Property,98122,EAST,47.613895,-122.32035800000001
Office,98122,EAST,47.613921999999995,-122.31642099999999
Office,98122,EAST,47.61391707,-122.3161479
Urgent Care/Clinic/Other Outpatient,98122,EAST,47.616753,-122.31108689999999
Mixed Use Property,98122,EAST,47.61547934,-122.31105749999999
Non-Refrigerated Warehouse,98122,EAST,47.61483102,-122.3151453
Non-Refrigerated Warehouse,98122,EAST,47.61461356,-122.31605619999999
Office,98122,EAST,47.61551228,-122.3203787
Other - Services,98105,NORTHEAST,47.66401898,-122.3171148
Other,98105,NORTHEAST,47.66518676,-122.3166784
K-12 School,98112,EAST,47.62288647,-122.28522790000001
K-12 School,98122,CENTRAL,47.61364411,-122.31219820000001
Office,98122,EAST,47.61550021,-122.3119
Worship Facility,98102,EAST,47.63114982,-122.3205229
K-12 School,98112,NORTHEAST,47.64081473,-122.3051793
Mixed Use Property,98122,SHARED: CENTRAL & EAST,47.61610097,-122.30973300000001
Office,98103,NORTHWEST,47.69889975,-122.34161019999999
Worship Facility,98199,MAGNOLIA / QUEEN ANNE,47.64830867,-122.3999978
K-12 School,98199,MAGNOLIA / QUEEN ANNE,47.64830867,-122.3999978
Refrigerated Warehouse,98108,GREATER DUWAMISH,47.5625932,-122.3234604
Other,98108,GREATER DUWAMISH,47.56153967,-122.3236818
Distribution Center,98108,GREATER DUWAMISH,47.561592100000006,-122.32601929
Worship Facility,98115,NORTHEAST,47.67808366,-122.29003119999999
Office,98112,EAST,47.63442612,-122.28053284
Office,98107,SHARED: BALLARD & LAKE UNION,47.65566658,-122.3621662
Laboratory,98119,MAGNOLIA / QUEEN ANNE,47.65239905,-122.3616659
Non-Refrigerated Warehouse,98108,GREATER DUWAMISH,47.54728272,-122.325775
K-12 School,98105,NORTHEAST,47.66437501,-122.2718132
Office,98119,MAGNOLIA / QUEEN ANNE,47.62496806,-122.359705
Library,98125,NORTH,47.71975659,-122.29809809999999
College/University,98144,CENTRAL,47.59722535,-122.3013658
College/University,98122,EAST,47.61787175,-122.32177920000001
Supermarket/Grocery Store,98116,SOUTHWEST,47.56159544,-122.38541678
Supermarket/Grocery Store,98102,EAST,47.62256944,-122.32148740000001
Retail Store,98109,MAGNOLIA / QUEEN ANNE,47.62501311,-122.3471326
Supermarket/Grocery Store,98109,MAGNOLIA / QUEEN ANNE,47.62500763,-122.34687042
Retail Store,98122,EAST,47.61378327,-122.32121310000001
Fitness Center/Health Club/Gym,98122,CENTRAL,47.61674563,-122.3019429
Non-Refrigerated Warehouse,98108,GREATER DUWAMISH,47.55098663,-122.31855601
K-12 School,98118,SOUTHEAST,47.52427301,-122.27143980000001
Non-Refrigerated Warehouse,98115,NORTHEAST,47.68384449,-122.26175956
Medical Office,98115,NORTHEAST,47.68219493,-122.26238988
Medical Office,98115,NORTHEAST,47.68219493,-122.26294644
Retail Store,98102,EAST,47.62211679999999,-122.32099883
Supermarket/Grocery Store,98125,NORTH,47.71792984,-122.31220245
Office,98103,LAKE UNION,47.64759569,-122.3335592
Other,98108,GREATER DUWAMISH,47.56158829,-122.31607056
Other - Recreation,98122,CENTRAL,47.60662628,-122.3002696
Supermarket/Grocery Store,98119,MAGNOLIA / QUEEN ANNE,47.62392426,-122.35764313
Office,98109,LAKE UNION,47.61987314,-122.33594343
Non-Refrigerated Warehouse,98178,SOUTHEAST,47.50991348,-122.27726192
K-12 School,98199,MAGNOLIA / QUEEN ANNE,47.64166106,-122.39855870000001
Other - Recreation,98115,NORTHEAST,47.68317875,-122.25879509999999
Urgent Care/Clinic/Other Outpatient,98133,NORTHWEST,47.71275676,-122.33649170000001
Residence Hall/Dormitory,98105,NORTHEAST,47.65673909,-122.31530690000001
Residence Hall/Dormitory,98105,NORTHEAST,47.65574778,-122.31407450000002
Other - Utility,98108,GREATER DUWAMISH,47.53244005,-122.33302820000002
Hospital (General Medical & Surgical),98105,NORTHEAST,47.66139776,-122.28469579999998
Retail Store,98109,MAGNOLIA / QUEEN ANNE,47.625,-122.35627747
Strip Mall,98116,SOUTHWEST,47.55989777,-122.3846207
Supermarket/Grocery Store,98116,SOUTHWEST,47.58017175,-122.38652922
Worship Facility,98105,NORTHEAST,47.67062411,-122.2709065
Laboratory,98109,LAKE UNION,47.62365341,-122.34140778
Office,98122,CENTRAL,47.61434963,-122.31246409999999
Office,98119,MAGNOLIA / QUEEN ANNE,47.63484955,-122.3767395
Office,98144,DOWNTOWN,47.59720707,-122.3130172
College/University,98105,NORTHEAST,47.65574778,-122.31407450000002
College/University,98105,NORTHEAST,47.66120911,-122.29592133
Senior Care Community,98112,SHARED: CENTRAL & EAST,47.61860512,-122.30352424
K-12 School,98125,NORTHWEST,47.731823,-122.32625149999998
K-12 School,98122,EAST,47.61403196,-122.32659794
Other,98119,MAGNOLIA / QUEEN ANNE,47.62811223,-122.37426470000001
Other,98109,MAGNOLIA / QUEEN ANNE,47.62050727,-122.35219479999999
Lifestyle Center,98105,NORTHEAST,47.66136158,-122.29808907
College/University,98108,GREATER DUWAMISH,47.54217629,-122.32541038
Pre-school/Daycare,98146,SOUTHWEST,47.5137929,-122.34320790000001
Other - Recreation,98118,SOUTHEAST,47.52449799,-122.27154541
College/University,98122,EAST,47.614465,-122.32173999999999
College/University,98122,EAST,47.61699416,-122.32040500000001
College/University,98122,EAST,47.61676902,-122.3215492
Supermarket/Grocery Store,98107,BALLARD,47.67057565,-122.38668529999998
Pre-school/Daycare,98108,GREATER DUWAMISH,47.54102707,-122.31249237
Residence Hall/Dormitory,98105,NORTHEAST,47.64992518,-122.3083284
College/University,98105,NORTHEAST,47.64992518,-122.3083284
College/University,98105,NORTHEAST,47.64992518,-122.3083284
College/University,98105,NORTHEAST,47.64992518,-122.3083284
College/University,98105,NORTHEAST,47.64992518,-122.3083284
College/University,98105,NORTHEAST,47.64992518,-122.3083284
Residence Hall/Dormitory,98105,NORTHEAST,47.64992518,-122.3083284
Residence Hall/Dormitory,98105,NORTHEAST,47.64992518,-122.3083284
College/University,98105,NORTHEAST,47.64992518,-122.3083284
Office,98109,LAKE UNION,47.623346600000005,-122.33968176
Self-Storage Facility,98144,SOUTHEAST,47.5705386,-122.29140149999999
Parking,98105,NORTHEAST,47.66411096,-122.31663940000001
Mixed Use Property,98199,MAGNOLIA / QUEEN ANNE,47.66199875,-122.38675690000001
